ONEWEB-0597             
1 54663U 22166X   26141.26404019  .00000053  00000+0  96594-4 0  9995
2 54663  87.9251 249.3449 0002088  98.7557 261.3814 13.21824932167983
ONEWEB-0600             
1 54664U 22166Y   26141.24553893  .00000108  00000+0  23032-3 0  9996
2 54664  87.9251 249.3397 0001990  93.8689 266.2673 13.21826907167957
ONEWEB-0601             
1 54665U 22166Z   26141.23712303  .00000065  00000+0  12580-3 0  9997
2 54665  87.9250 249.3578 0002257  99.8196 260.3193 13.21827018168142
ONEWEB-0602             
1 54666U 22166AA  26141.27832506  .00000072  00000+0  14219-3 0  9999
2 54666  87.9251 249.3558 0002037  92.3579 267.7789 13.21824023167998
ONEWEB-0603             
1 54667U 22166AB  26141.20853185 -.00000012  00000+0 -59670-4 0  9996
2 54667  87.9262 249.3241 0002073  98.0097 262.1272 13.21824485167918
ONEWEB-0604             
1 54668U 22166AC  26141.27245700  .00000094  00000+0  19561-3 0  9994
2 54668  87.9262 249.3267 0001908 100.5383 259.5966 13.21824690167884
ONEWEB-0605             
1 54669U 22166AD  26141.26571259  .00000085  00000+0  17544-3 0  9994
2 54669  87.9253 249.3437 0002581 107.2769 252.8648 13.21823915167954
ONEWEB-0606             
1 54670U 22166AE  26141.06050361 -.00000045  00000+0 -14060-3 0  9998
2 54670  87.9251 249.3972 0001891 102.1300 258.0046 13.21823984167985
ONEWEB-0607             
1 54671U 22166AF  26141.25394792  .00000021  00000+0  19650-4 0  9992
2 54671  87.9259 249.3276 0002092  96.0387 264.0985 13.21826974167982
ONEWEB-0608             
1 54672U 22166AG  26141.26067971  .00000118  00000+0  25420-3 0  9998
2 54672  87.9259 249.3221 0002527 100.9182 259.2236 13.21823601167994
ONEWEB-0610             
1 54673U 22166AH  26141.24049341  .00000066  00000+0  12838-3 0  9999
2 54673  87.9253 249.3432 0002556  94.8703 265.2723 13.21826435167890
ONEWEB-0611             
1 54674U 22166AJ  26141.23376169  .00000003  00000+0 -24958-4 0  9999
2 54674  87.9249 249.3408 0001874 102.2009 257.9335 13.21825777167888
ONEWEB-0612             
1 54675U 22166AK  26141.24721349  .00000069  00000+0  13443-3 0  9992
2 54675  87.9260 249.3303 0002176  99.7924 260.3456 13.21827352167870
ONEWEB-0615             
1 54676U 22166AL  26141.22703524  .00000052  00000+0  94847-4 0  9996
2 54676  87.9255 249.3518 0001702  97.8589 262.2738 13.21824470167886
ONEWEB-0655             
1 54677U 22166AM  26141.27918426 -.00000096  00000+0 -26462-3 0  9998
2 54677  87.9247 249.3427 0002041  93.2851 266.8517 13.21824728167887
ONEWEB-0659             
1 54678U 22166AN  26141.22030300  .00000049  00000+0  87363-4 0  9994
2 54678  87.9252 249.3548 0001938 102.6216 257.5135 13.21827060167966
