[{"OBJECT_NAME":"ONEWEB-0597","OBJECT_ID":"2022-166X","EPOCH":"2026-05-21T06:20:13.072416","MEAN_MOTION":13.21824932,"ECCENTRICITY":0.0002088,"INCLINATION":87.9251,"RA_OF_ASC_NODE":249.3449,"ARG_OF_PERICENTER":98.7557,"MEAN_ANOMALY":261.3814,"EPHEMERIS_TYPE":0,"CLASSIFICATION_TYPE":"U","NORAD_CAT_ID":54663,"ELEMENT_SET_NO":999,"REV_AT_EPOCH":16798,"BSTAR":9.6594e-05,"MEAN_MOTION_DOT":5.3e-07,"MEAN_MOTION_DDOT":0.0},{"OBJECT_NAME":"ONEWEB-0600","OBJECT_ID":"2022-166Y","EPOCH":"2026-05-21T05:53:34.563552","MEAN_MOTION":13.21826907,"ECCENTRICITY":0.000199,"INCLINATION":87.9251,"RA_OF_ASC_NODE":249.3397,"ARG_OF_PERICENTER":93.8689,"MEAN_ANOMALY":266.2673,"EPHEMERIS_TYPE":0,"CLASSIFICATION_TYPE":"U","NORAD_CAT_ID":54664,"ELEMENT_SET_NO":999,"REV_AT_EPOCH":16795,"BSTAR":0.00023032,"MEAN_MOTION_DOT":1.08e-06,"MEAN_MOTION_DDOT":0.0},{"OBJECT_NAME":"ONEWEB-0601","OBJECT_ID":"2022-166Z","EPOCH":"2026-05-21T05:41:27.429792","MEAN_MOTION":13.21827018,"ECCENTRICITY":0.0002257,"INCLINATION":87.925,"RA_OF_ASC_NODE":249.3578,"ARG_OF_PERICENTER":99.8196,"MEAN_ANOMALY":260.3193,"EPHEMERIS_TYPE":0,"CLASSIFICATION_TYPE":"U","NORAD_CAT_ID":54665,"ELEMENT_SET_NO":999,"REV_AT_EPOCH":16814,"BSTAR":0.0001258,"MEAN_MOTION_DOT":6.5e-07,"MEAN_MOTION_DDOT":0.0},{"OBJECT_NAME":"ONEWEB-0602","OBJECT_ID":"2022-166AA","EPOCH":"2026-05-21T06:40:47.285184","MEAN_MOTION":13.21824023,"ECCENTRICITY":0.0002037,"INCLINATION":87.9251,"RA_OF_ASC_NODE":249.3558,"ARG_OF_PERICENTER":92.3579,"MEAN_ANOMALY":267.7789,"EPHEMERIS_TYPE":0,"CLASSIFICATION_TYPE":"U","NORAD_CAT_ID":54666,"ELEMENT_SET_NO":999,"REV_AT_EPOCH":16799,"BSTAR":0.00014219000000000002,"MEAN_MOTION_DOT":7.2e-07,"MEAN_MOTION_DDOT":0.0},{"OBJECT_NAME":"ONEWEB-0603","OBJECT_ID":"2022-166AB","EPOCH":"2026-05-21T05:00:17.151840","MEAN_MOTION":13.21824485,"ECCENTRICITY":0.0002073,"INCLINATION":87.9262,"RA_OF_ASC_NODE":249.3241,"ARG_OF_PERICENTER":98.0097,"MEAN_ANOMALY":262.1272,"EPHEMERIS_TYPE":0,"CLASSIFICATION_TYPE":"U","NORAD_CAT_ID":54667,"ELEMENT_SET_NO":999,"REV_AT_EPOCH":16791,"BSTAR":-5.967e-05,"MEAN_MOTION_DOT":-1.2e-07,"MEAN_MOTION_DDOT":0.0},{"OBJECT_NAME":"ONEWEB-0604","OBJECT_ID":"2022-166AC","EPOCH":"2026-05-21T06:32:20.284800","MEAN_MOTION":13.2182469,"ECCENTRICITY":0.0001908,"INCLINATION":87.9262,"RA_OF_ASC_NODE":249.3267,"ARG_OF_PERICENTER":100.5383,"MEAN_ANOMALY":259.5966,"EPHEMERIS_TYPE":0,"CLASSIFICATION_TYPE":"U","NORAD_CAT_ID":54668,"ELEMENT_SET_NO":999,"REV_AT_EPOCH":16788,"BSTAR":0.00019561,"MEAN_MOTION_DOT":9.4e-07,"MEAN_MOTION_DDOT":0.0},{"OBJECT_NAME":"ONEWEB-0605","OBJECT_ID":"2022-166AD","EPOCH":"2026-05-21T06:22:37.567776","MEAN_MOTION":13.21823915,"ECCENTRICITY":0.0002581,"INCLINATION":87.9253,"RA_OF_ASC_NODE":249.3437,"ARG_OF_PERICENTER":107.2769,"MEAN_ANOMALY":252.8648,"EPHEMERIS_TYPE":0,"CLASSIFICATION_TYPE":"U","NORAD_CAT_ID":54669,"ELEMENT_SET_NO":999,"REV_AT_EPOCH":16795,"BSTAR":0.00017544000000000001,"MEAN_MOTION_DOT":8.5e-07,"MEAN_MOTION_DDOT":0.0},{"OBJECT_NAME":"ONEWEB-0606","OBJECT_ID":"2022-166AE","EPOCH":"2026-05-21T01:27:07.511904","MEAN_MOTION":13.21823984,"ECCENTRICITY":0.0001891,"INCLINATION":87.9251,"RA_OF_ASC_NODE":249.3972,"ARG_OF_PERICENTER":102.13,"MEAN_ANOMALY":258.0046,"EPHEMERIS_TYPE":0,"CLASSIFICATION_TYPE":"U","NORAD_CAT_ID":54670,"ELEMENT_SET_NO":999,"REV_AT_EPOCH":16798,"BSTAR":-0.0001406,"MEAN_MOTION_DOT":-4.5e-07,"MEAN_MOTION_DDOT":0.0},{"OBJECT_NAME":"ONEWEB-0607","OBJECT_ID":"2022-166AF","EPOCH":"2026-05-21T06:05:41.100288","MEAN_MOTION":13.21826974,"ECCENTRICITY":0.0002092,"INCLINATION":87.9259,"RA_OF_ASC_NODE":249.3276,"ARG_OF_PERICENTER":96.0387,"MEAN_ANOMALY":264.0985,"EPHEMERIS_TYPE":0,"CLASSIFICATION_TYPE":"U","NORAD_CAT_ID":54671,"ELEMENT_SET_NO":999,"REV_AT_EPOCH":16798,"BSTAR":1.9650000000000003e-05,"MEAN_MOTION_DOT":2.1e-07,"MEAN_MOTION_DDOT":0.0},{"OBJECT_NAME":"ONEWEB-0608","OBJECT_ID":"2022-166AG","EPOCH":"2026-05-21T06:15:22.726944","MEAN_MOTION":13.21823601,"ECCENTRICITY":0.0002527,"INCLINATION":87.9259,"RA_OF_ASC_NODE":249.3221,"ARG_OF_PERICENTER":100.9182,"MEAN_ANOMALY":259.2236,"EPHEMERIS_TYPE":0,"CLASSIFICATION_TYPE":"U","NORAD_CAT_ID":54672,"ELEMENT_SET_NO":999,"REV_AT_EPOCH":16799,"BSTAR":0.0002542,"MEAN_MOTION_DOT":1.18e-06,"MEAN_MOTION_DDOT":0.0},{"OBJECT_NAME":"ONEWEB-0610","OBJECT_ID":"2022-166AH","EPOCH":"2026-05-21T05:46:18.630624","MEAN_MOTION":13.21826435,"ECCENTRICITY":0.0002556,"INCLINATION":87.9253,"RA_OF_ASC_NODE":249.3432,"ARG_OF_PERICENTER":94.8703,"MEAN_ANOMALY":265.2723,"EPHEMERIS_TYPE":0,"CLASSIFICATION_TYPE":"U","NORAD_CAT_ID":54673,"ELEMENT_SET_NO":999,"REV_AT_EPOCH":16789,"BSTAR":0.00012838,"MEAN_MOTION_DOT":6.6e-07,"MEAN_MOTION_DDOT":0.0},{"OBJECT_NAME":"ONEWEB-0611","OBJECT_ID":"2022-166AJ","EPOCH":"2026-05-21T05:36:37.010016","MEAN_MOTION":13.21825777,"ECCENTRICITY":0.0001874,"INCLINATION":87.9249,"RA_OF_ASC_NODE":249.3408,"ARG_OF_PERICENTER":102.2009,"MEAN_ANOMALY":257.9335,"EPHEMERIS_TYPE":0,"CLASSIFICATION_TYPE":"U","NORAD_CAT_ID":54674,"ELEMENT_SET_NO":999,"REV_AT_EPOCH":16788,"BSTAR":-2.4958e-05,"MEAN_MOTION_DOT":3e-08,"MEAN_MOTION_DDOT":0.0},{"OBJECT_NAME":"ONEWEB-0612","OBJECT_ID":"2022-166AK","EPOCH":"2026-05-21T05:55:59.245536","MEAN_MOTION":13.21827352,"ECCENTRICITY":0.0002176,"INCLINATION":87.926,"RA_OF_ASC_NODE":249.3303,"ARG_OF_PERICENTER":99.7924,"MEAN_ANOMALY":260.3456,"EPHEMERIS_TYPE":0,"CLASSIFICATION_TYPE":"U","NORAD_CAT_ID":54675,"ELEMENT_SET_NO":999,"REV_AT_EPOCH":16787,"BSTAR":0.00013443,"MEAN_MOTION_DOT":6.9e-07,"MEAN_MOTION_DDOT":0.0},{"OBJECT_NAME":"ONEWEB-0615","OBJECT_ID":"2022-166AL","EPOCH":"2026-05-21T05:26:55.844736","MEAN_MOTION":13.2182447,"ECCENTRICITY":0.0001702,"INCLINATION":87.9255,"RA_OF_ASC_NODE":249.3518,"ARG_OF_PERICENTER":97.8589,"MEAN_ANOMALY":262.2738,"EPHEMERIS_TYPE":0,"CLASSIFICATION_TYPE":"U","NORAD_CAT_ID":54676,"ELEMENT_SET_NO":999,"REV_AT_EPOCH":16788,"BSTAR":9.484700000000001e-05,"MEAN_MOTION_DOT":5.2e-07,"MEAN_MOTION_DDOT":0.0},{"OBJECT_NAME":"ONEWEB-0655","OBJECT_ID":"2022-166AM","EPOCH":"2026-05-21T06:42:01.520064","MEAN_MOTION":13.21824728,"ECCENTRICITY":0.0002041,"INCLINATION":87.9247,"RA_OF_ASC_NODE":249.3427,"ARG_OF_PERICENTER":93.2851,"MEAN_ANOMALY":266.8517,"EPHEMERIS_TYPE":0,"CLASSIFICATION_TYPE":"U","NORAD_CAT_ID":54677,"ELEMENT_SET_NO":999,"REV_AT_EPOCH":16788,"BSTAR":-0.00026462,"MEAN_MOTION_DOT":-9.6e-07,"MEAN_MOTION_DDOT":0.0},{"OBJECT_NAME":"ONEWEB-0659","OBJECT_ID":"2022-166AN","EPOCH":"2026-05-21T05:17:14.179200","MEAN_MOTION":13.2182706,"ECCENTRICITY":0.0001938,"INCLINATION":87.9252,"RA_OF_ASC_NODE":249.3548,"ARG_OF_PERICENTER":102.6216,"MEAN_ANOMALY":257.5135,"EPHEMERIS_TYPE":0,"CLASSIFICATION_TYPE":"U","NORAD_CAT_ID":54678,"ELEMENT_SET_NO":999,"REV_AT_EPOCH":16796,"BSTAR":8.736300000000001e-05,"MEAN_MOTION_DOT":4.9e-07,"MEAN_MOTION_DDOT":0.0}]